HYSIS                   
1 43719U 18096A   26170.85064206 -.00000183  00000+0 -17882-4 0  9998
2 43719  97.9834 237.5779 0001775  96.0029 264.1384 14.78618256407818
KAZSTSAT                
1 43783U 18099AB  26170.56593201  .00001394  00000+0  11694-3 0  9999
2 43783  97.4271 202.3860 0008594  63.5314 296.6791 14.99872903411666
SAUDISAT 5A             
1 43831U 18102A   26170.84970096  .00004454  00000+0  16512-3 0  9994
2 43831  97.3062 232.3796 0011160 120.9067 239.3271 15.28070549416081
SAUDISAT 5B             
1 43833U 18102C   26170.86809889  .00004230  00000+0  15574-3 0  9998
2 43833  97.3172 235.4721 0011839 122.9801 237.2578 15.28326277416201
GAOFEN-10R              
1 44622U 19066A   26170.85256448  .00000874  00000+0  11410-3 0  9996
2 44622  98.0503 124.4513 0006809 120.4507 239.7380 14.83065584362778
CARTOSAT-3              
1 44804U 19081A   26170.85769419  .00001378  00000+0  68429-4 0  9995
2 44804  97.4296 232.6823 0013396 139.8562 220.3665 15.19291936363878
GAOFEN-12 01            
1 44819U 19082A   26170.85081948  .00000263  00000+0  41046-4 0  9994
2 44819  97.8100 177.1600 0002199  67.2196 292.9248 14.80460255354482
CSG-1                   
1 44873U 19092A   26170.81928168  .00000286  00000+0  42454-4 0  9994
2 44873  97.8889 354.3836 0001450  89.9966 270.1413 14.82154935351869
NEMO-HD                 
1 46277U 20061F   26170.85066995  .00008726  00000+0  18922-3 0  9996
2 46277  97.1914 232.7769 0002160  79.2685 280.8807 15.44639002322397
SENTINEL-6A             
1 46984U 20086A   26170.58391345 -.00000051  00000+0  41848-4 0  9996
2 46984  66.0397 130.0742 0007924 270.1963  89.8144 12.80929975260634
CAS500-1                
1 47932U 21022A   26170.82770150  .00004737  00000+0  22207-3 0  9994
2 47932  97.3894  66.0276 0003293 286.9396  73.1478 15.20157452291165
GAOFEN-12 02            
1 48079U 21026A   26170.86216337  .00000250  00000+0  39699-4 0  9997
2 48079  97.9922 169.0318 0003877 210.8980 149.2004 14.80297764282155
PLEIADES NEO 3          
1 48268U 21034A   26170.34665170  .00000232  00000+0  36055-4 0  9995
2 48268  97.8930 245.0823 0001335  89.7246 270.4120 14.81675152277976
PLEIADES NEO 4          
1 49070U 21073E   26170.44793140  .00001237  00000+0  16369-3 0  9991
2 49070  97.8934 245.1785 0001397  88.3314 271.8059 14.81682225261708
LANDSAT 9               
1 49260U 21088A   26170.73731836  .00000242  00000+0  63925-4 0  9990
2 49260  98.2280 240.8839 0001338  85.0298 275.1053 14.57098593251375
CSG-2                   
1 51444U 22008A   26170.85301411  .00000130  00000+0  22907-4 0  9996
2 51444  97.8884 354.4114 0001450  87.0504 273.0875 14.82156628236983
GAOFEN-12 03            
1 52912U 22069A   26170.82494877  .00000087  00000+0  18183-4 0  9992
2 52912  97.8273  58.6285 0002152 101.5635 258.5818 14.80036130215003
SWOT                    
1 54754U 22173A   26170.84642528  .00000059  00000+0  41663-4 0  9992
2 54754  77.6105  31.7203 0000279  91.3984 268.7199 14.00169910179528
GAOFEN-12 04            
1 57654U 23123A   26170.84127623  .00000724  00000+0  10196-3 0  9999
2 57654  97.9121  88.8210 0001776  82.2867 277.8547 14.80232918153028
PARS 1                  
1 59065U 24039Q   26170.90395387  .00009776  00000+0  20340-3 0  9993
2 59065  97.4827 151.9092 0011543 103.5430 256.7106 15.45772568129066
RESURS-P 4              
1 59371U 24061A   26170.87558649  .00002475  00000+0  82196-4 0  9993
2 59371  97.2753 118.7274 0002362 123.7304 236.4163 15.32144013124177
LEGION 1                
1 59625U 24081A   26170.80005294  .00002730  00000+0  14273-3 0  9997
2 59625  97.5015 248.6293 0009269   8.9427 351.1969 15.16681667117938
LEGION 2                
1 59626U 24081B   26170.83006919  .00002993  00000+0  15621-3 0  9995
2 59626  97.5016 248.7564 0010525 333.9934  26.0769 15.16660178117944
ALOS-4 (DAICHI-4)       
1 60182U 24123A   26170.79620258  .00001084  00000+0  15205-3 0  9992
2 60182  97.9248 267.9336 0001624  96.9985 263.1411 14.79472749106260
LEGION 3                
1 60452U 24146A   26170.83253054  .00003475  00000+0  19096-3 0  9996
2 60452  45.0028  16.3675 0007972 185.3555 174.7239 15.16054802102427
LEGION 4                
1 60453U 24146B   26170.83564137  .00003704  00000+0  20248-3 0  9990
2 60453  45.0016 108.2610 0013540 322.4387  37.5545 15.16050035101272
SENTINEL-2C             
1 60989U 24157A   26170.69002731  .00000071  00000+0  43874-4 0  9992
2 60989  98.5692 245.4367 0000997  82.9582 277.1714 14.30818401 93341
IONOSFERA-M 1           
1 61735U 24199A   26170.86617675  .00000035  00000+0  35320-4 0  9993
2 61735  98.7170  44.0101 0002021 106.8104 253.3296 14.22754794128085
IONOSFERA-M 2           
1 61736U 24199B   26170.83013955  .00000031  00000+0  33647-4 0  9998
2 61736  98.7169  43.8850 0000937  37.9317 322.1927 14.22758051131200
PRSC-EO1                
1 62725U 25012A   26170.82906122  .00005547  00000+0  27890-3 0  9997
2 62725  97.4221 243.2376 0004954 240.5014 119.5726 15.17635877 78594
BIOMASS                 
1 63772U 25090A   26169.46532683  .00000158  00000+0  36300-4 0  9991
2 63772  98.0739 356.7637 0001346  96.2561 263.8797 14.67536694 60877
