OBJECT_NAME,OBJECT_ID,EPOCH,MEAN_MOTION,ECCENTRICITY,INCLINATION,RA_OF_ASC_NODE,ARG_OF_PERICENTER,MEAN_ANOMALY,EPHEMERIS_TYPE,CLASSIFICATION_TYPE,NORAD_CAT_ID,ELEMENT_SET_NO,REV_AT_EPOCH,BSTAR,MEAN_MOTION_DOT,MEAN_MOTION_DDOT
HYSIS,2018-096A,2026-06-19T20:24:55.473984,14.78618256,.0001775,97.9834,237.5779,96.0029,264.1384,0,U,43719,999,40781,-.17882E-4,-.183E-5,0
KAZSTSAT,2018-099AB,2026-06-19T13:34:56.525664,14.99872903,.00085945,97.4271,202.3860,63.5314,296.6791,0,U,43783,999,41166,.11693548E-3,.1394E-4,0
SAUDISAT 5A,2018-102A,2026-06-19T20:23:34.162944,15.28070549,.001116,97.3062,232.3796,120.9067,239.3271,0,U,43831,999,41608,.16512E-3,.4454E-4,0
SAUDISAT 5B,2018-102C,2026-06-19T20:50:03.744096,15.28326277,.0011839,97.3172,235.4721,122.9801,237.2578,0,U,43833,999,41620,.15574E-3,.423E-4,0
GAOFEN-10R,2019-066A,2026-06-19T20:27:41.571072,14.83065584,.0006809,98.0503,124.4513,120.4507,239.7380,0,U,44622,999,36277,.1141E-3,.874E-5,0
CARTOSAT-3,2019-081A,2026-06-19T20:35:04.778016,15.19291936,.0013396,97.4296,232.6823,139.8562,220.3665,0,U,44804,999,36387,.68429E-4,.1378E-4,0
GAOFEN-12 01,2019-082A,2026-06-19T20:25:10.803072,14.80460255,.0002199,97.8100,177.1600,67.2196,292.9248,0,U,44819,999,35448,.41046E-4,.263E-5,0
CSG-1,2019-092A,2026-06-19T19:39:45.937152,14.82154935,.000145,97.8889,354.3836,89.9966,270.1413,0,U,44873,999,35186,.42454E-4,.286E-5,0
NEMO-HD,2020-061F,2026-06-19T20:24:57.883680,15.44639002,.000216,97.1914,232.7769,79.2685,280.8807,0,U,46277,999,32239,.18922E-3,.8726E-4,0
SENTINEL-6A,2020-086A,2026-06-19T14:00:50.122080,12.80929975,.00079244,66.0397,130.0742,270.1963,89.8144,0,U,46984,999,26063,.41848121E-4,-.51E-6,0
CAS500-1,2021-022A,2026-06-19T19:51:53.409600,15.20157452,.0003293,97.3894,66.0276,286.9396,73.1478,0,U,47932,999,29116,.22207E-3,.4737E-4,0
GAOFEN-12 02,2021-026A,2026-06-19T20:41:30.915168,14.80297764,.0003877,97.9922,169.0318,210.8980,149.2004,0,U,48079,999,28215,.39699E-4,.25E-5,0
PLEIADES NEO 3,2021-034A,2026-06-19T08:19:10.706880,14.81675152,.00013358,97.8930,245.0823,89.7246,270.4120,0,U,48268,999,27797,.36054986E-4,.232E-5,0
PLEIADES NEO 4,2021-073E,2026-06-19T10:45:01.272960,14.81682225,.00013978,97.8934,245.1785,88.3314,271.8059,0,U,49070,999,26170,.1636946E-3,.1237E-4,0
LANDSAT 9,2021-088A,2026-06-19T17:41:44.306304,14.57098593,.0001338,98.2280,240.8839,85.0298,275.1053,0,U,49260,999,25137,.63925E-4,.242E-5,0
CSG-2,2022-008A,2026-06-19T20:28:20.419104,14.82156628,.000145,97.8884,354.4114,87.0504,273.0875,0,U,51444,999,23698,.22907E-4,.13E-5,0
GAOFEN-12 03,2022-069A,2026-06-19T19:47:55.573728,14.80036130,.0002152,97.8273,58.6285,101.5635,258.5818,0,U,52912,999,21500,.18183E-4,.87E-6,0
SWOT,2022-173A,2026-06-19T20:18:51.144192,14.00169910,.0000279,77.6105,31.7203,91.3984,268.7199,0,U,54754,999,17952,.41663E-4,.59E-6,0
GAOFEN-12 04,2023-123A,2026-06-19T20:11:26.266272,14.80232918,.0001776,97.9121,88.8210,82.2867,277.8547,0,U,57654,999,15302,.10196E-3,.724E-5,0
PARS 1,2024-039Q,2026-06-19T21:41:41.614368,15.45772568,.0011543,97.4827,151.9092,103.5430,256.7106,0,U,59065,999,12906,.2034E-3,.9776E-4,0
RESURS-P 4,2024-061A,2026-06-19T21:00:50.672736,15.32144013,.0002362,97.2753,118.7274,123.7304,236.4163,0,U,59371,999,12417,.82196E-4,.2475E-4,0
LEGION 1,2024-081A,2026-06-19T19:12:04.574016,15.16681667,.0009269,97.5015,248.6293,8.9427,351.1969,0,U,59625,999,11793,.14273E-3,.273E-4,0
LEGION 2,2024-081B,2026-06-19T19:55:17.978016,15.16660178,.0010525,97.5016,248.7564,333.9934,26.0769,0,U,59626,999,11794,.15621E-3,.2993E-4,0
ALOS-4 (DAICHI-4),2024-123A,2026-06-19T19:06:31.902912,14.79472749,.0001624,97.9248,267.9336,96.9985,263.1411,0,U,60182,999,10626,.15205E-3,.1084E-4,0
LEGION 3,2024-146A,2026-06-19T19:58:50.638656,15.16054802,.0007972,45.0028,16.3675,185.3555,174.7239,0,U,60452,999,10242,.19096E-3,.3475E-4,0
LEGION 4,2024-146B,2026-06-19T20:03:19.414368,15.16050035,.001354,45.0016,108.2610,322.4387,37.5545,0,U,60453,999,10127,.20248E-3,.3704E-4,0
SENTINEL-2C,2024-157A,2026-06-19T16:33:38.359584,14.30818401,.0000997,98.5692,245.4367,82.9582,277.1714,0,U,60989,999,9334,.43874E-4,.71E-6,0
IONOSFERA-M 1,2024-199A,2026-06-19T20:47:17.671200,14.22754794,.0002021,98.7170,44.0101,106.8104,253.3296,0,U,61735,999,12808,.3532E-4,.35E-6,0
IONOSFERA-M 2,2024-199B,2026-06-19T19:55:24.057120,14.22758051,.0000937,98.7169,43.8850,37.9317,322.1927,0,U,61736,999,13120,.33647E-4,.31E-6,0
PRSC-EO1,2025-012A,2026-06-19T19:53:50.889408,15.17635877,.0004954,97.4221,243.2376,240.5014,119.5726,0,U,62725,999,7859,.2789E-3,.5547E-4,0
BIOMASS,2025-090A,2026-06-18T11:10:04.238112,14.67536694,.0001346,98.0739,356.7637,96.2561,263.8797,0,U,63772,999,6087,.363E-4,.158E-5,0
